RAVAN                   
1 41849U 16067B   22349.66496101  .00006605  00000+0  50395-3 0  9990
2 41849  98.0159 132.2290 0019185  86.6550 273.6868 15.02216196333184
CELTEE 1                
1 41850U 16067C   22348.89704508  .00002513  00000+0  21045-3 0  9993
2 41850  98.0214 125.8312 0008178  87.7151 272.5008 14.99378183332789
OPTICUBE 04             
1 41851U 16067D   22349.84317518  .00002149  00000+0  18534-3 0  9995
2 41851  98.0187 125.5901 0009170  98.0838 262.1425 14.98382127332869
AEROCUBE 8D             
1 41852U 16067E   22349.62684994  .00003421  00000+0  28431-3 0  9998
2 41852  98.0189 125.5640 0008916  88.3876 271.8367 14.99410143332833
AEROCUBE 8C             
1 41853U 16067F   22349.61152130  .00004479  00000+0  37046-3 0  9996
2 41853  98.0209 125.3438 0012132  90.6996 269.5616 14.99401373332829
PROMETHEUS 2-1          
1 41854U 16067G   22349.13910409  .00007157  00000+0  55912-3 0  9993
2 41854  98.0408 126.4710 0017468 108.1798 252.1328 15.01311397332837
PROMETHEUS 2-3          
1 41855U 16067H   22349.66331661  .00007691  00000+0  60089-3 0  9993
2 41855  98.0374 127.0639 0014335 120.1581 240.1064 15.01320578332915
INS-1B                  
1 41954U 17008G   22349.39728107  .00024592  00000+0  67154-3 0  9993
2 41954  97.2332  45.9188 0005327 316.2243  43.8579 15.37390460324489
BGUSAT                  
1 41999U 17008BD  22349.43254837  .00116635  00000+0  14407-2 0  9993
2 41999  97.2583  60.8038 0002054 274.4543  85.6480 15.59750440324632
DIDO-2                  
1 42000U 17008BE  22349.67091752  .00012966  00000+0  42747-3 0  9999
2 42000  97.2335  44.4701 0006390 347.2514  12.8566 15.31554837323773
PEASSS                  
1 42015U 17008BV  22349.44414880  .00021369  00000+0  59701-3 0  9996
2 42015  97.2401  49.2707 0003866 342.6649  17.4463 15.36713393324514
AL-FARABI 1             
1 42016U 17008BW  22349.14331941  .00034902  00000+0  81623-3 0  9995
2 42016  97.2470  53.1773 0003011 338.6614  21.4507 15.42068832324812
NAYIF-1 (EO-88)         
1 42017U 17008BX  22348.68227488  .00030074  00000+0  69838-3 0  9994
2 42017  97.2465  52.7632 0003182 336.8771  23.2333 15.42310477324776
UCLSAT                  
1 42765U 17036A   22349.58342501  .00022235  00000+0  65604-3 0  9996
2 42765  97.1748  26.8926 0009701  44.7326 315.4698 15.34953618304994
LITUANICASAT-2          
1 42768U 17036D   22349.39888088  .00070201  00000+0  12876-2 0  9991
2 42768  97.1797  31.9617 0008269  21.6216 338.5383 15.49006380305118
AALTO-1                 
1 42775U 17036L   22349.64202367  .00011125  00000+0  40305-3 0  9996
2 42775  97.1776  20.7047 0013046  48.8865 311.3500 15.28456892304423
URSA MAIOR              
1 42776U 17036M   22349.60665563  .00012805  00000+0  45095-3 0  9991
2 42776  97.1788  21.6142 0012682  47.3947 312.8361 15.29355789304462
COMPASS 2               
1 42777U 17036N   22349.08632881  .00036803  00000+0  89514-3 0  9999
2 42777  97.1806  29.7063 0008949  30.8578 329.3193 15.40835024304872
DIAMOND RED             
1 42783U 17036U   22349.60173643  .00015107  00000+0  50456-3 0  9997
2 42783  97.1782  24.3263 0011057  51.1537 309.0689 15.31060638304629
PEGASUS                 
1 42784U 17036V   22349.63281285  .00019843  00000+0  61228-3 0  9993
2 42784  97.1772  25.9715 0010461  47.3284 312.8839 15.33550174304734
DIAMOND GREEN           
1 42785U 17036W   22349.53397303  .00015791  00000+0  52521-3 0  9996
2 42785  97.1785  24.3333 0010834  53.0192 307.2039 15.31187489304681
DIAMOND BLUE            
1 42786U 17036X   22349.79552253  .00015672  00000+0  52190-3 0  9992
2 42786  97.1786  24.5766 0010955  52.2436 307.9796 15.31148380304641
NUDTSAT                 
1 42787U 17036Y   22349.56944789  .00039912  00000+0  90856-3 0  9991
2 42787  97.1781  31.7960 0008057  30.9750 329.1973 15.42820674304924
SUCHAI                  
1 42788U 17036Z   22349.55480713  .00025619  00000+0  71548-3 0  9999
2 42788  97.1769  28.1441 0009336  41.8116 318.3840 15.36652383304930
SKCUBE                  
1 42789U 17036AA  22349.34564425  .00021708  00000+0  63549-3 0  9997
2 42789  97.1769  27.1336 0009615  43.7970 316.4034 15.35206967304770
VZLUSAT-1               
1 42790U 17036AB  22349.53983854  .00045369  00000+0  10448-2 0  9999
2 42790  97.1781  31.6737 0007638  32.6855 327.4864 15.42449388305063
ROBUSTA 1B              
1 42792U 17036AD  22349.67470835  .00024694  00000+0  70000-3 0  9995
2 42792  97.1767  28.1997 0008982  42.5932 317.6008 15.36197289304880
CICERO 6                
1 42793U 17036AE  22349.64752064  .00013278  00000+0  44999-3 0  9994
2 42793  97.1763  24.8136 0009764  51.9707 308.2414 15.30629905304750
CORVUS BC2              
1 42846U 17042X   22349.55794563  .00001603  00000+0  15725-3 0  9994
2 42846  97.3992 196.4542 0010731 106.0432 254.1971 14.93455787295305
CORVUS BC1              
1 42847U 17042Y   22349.62721232  .00001602  00000+0  15686-3 0  9991
2 42847  97.3991 196.8530 0010416 105.1034 255.1340 14.93533132295328
MIRATA                  
1 43015U 17073C   22349.58735296  .00014604  00000+0  10147-2 0  9995
2 43015  97.6536 238.2503 0228305 304.6967  53.2927 14.86865415274154
MAKERSAT 0              
1 43016U 17073D   22348.92485868  .00009407  00000+0  67892-3 0  9995
2 43016  97.6539 236.6739 0238139 313.0481  45.1006 14.84269300273945
CORVUS BC3              
1 43118U 18004H   22349.42808173  .00013752  00000+0  46821-3 0  9994
2 43118  97.3446  59.9488 0010126  83.1668 277.0724 15.30474290273867
MICROMAS-2A             
1 43131U 18004W   22349.45921901  .00062933  00000+0  11836-2 0  9999
2 43131  97.3594  70.2680 0005456  59.1041 301.0745 15.48337516274459
SPACEBEE-4              
1 43139U 18004AE  22348.23228386  .01336735  10262-2  22510-2 0  9999
2 43139  97.3568  78.9237 0006690 310.7867  49.2832 16.02987271274845
CICERO 7                
1 43143U 18004AJ  22349.52667820  .00021196  00000+0  53506-3 0  9994
2 43143  97.3596  68.5669 0006417  75.5017 284.6941 15.39836041274376
GOMX-4B                 
1 43196U 18015E   22349.20238775  .00011707  00000+0  40655-3 0  9990
2 43196  97.5559 130.8695 0017324 135.9428 224.3196 15.29783438270765
GOMX-4A                 
1 43197U 18015F   22349.47743362  .00012681  00000+0  41188-3 0  9997
2 43197  97.5555 132.4782 0016922 133.7976 297.7609 15.31932903270909
AEROCUBE 12A            
1 43556U 18046C   22349.51525556  .00044850  00000+0  82705-3 0  9991
2 43556  51.6345  16.0857 0007809 346.9143  13.1641 15.48643523247279
AEROCUBE 12B            
1 43557U 18046D   22349.39953675  .00030168  00000+0  65055-3 0  9991
2 43557  51.6360  24.9650 0007646 338.2347  21.8313 15.44282450247091
SURFSAT                 
1 43614U 18070B   22348.31263607  .00162538  00000+0  86925-3 0  9998
2 43614  92.9984 175.8178 0007491  23.3783 336.7833 15.79875989239178
CP7 (DAVE)              
1 43615U 18070C   22349.49519103  .00135929  00000+0  92437-3 0  9993
2 43615  92.9983 175.8756 0008314  24.3936 335.7729 15.74483868239287
CUBEBEL-1 (BSUSAT-1)    
1 43666U 18083E   22349.90664492  .00016306  00000+0  61393-3 0  9995
2 43666  97.4040  16.7980 0013743  56.9525  42.3759 15.27095870229133
CICERO 10               
1 43690U 18088A   22349.32364773  .00013436  00000+0  48523-3 0  9993
2 43690  85.0360 196.0315 0011484 187.9736 172.1328 15.28293250227349
IRVINE01                
1 43693U 18088D   22349.59108540  .00173443  00000+0  19106-2 0  9992
2 43693  85.0194 186.3787 0005685 102.1522 258.0379 15.62549297228210
PROXIMA I               
1 43694U 18088E   22349.54044032  .00013096  00000+0  44758-3 0  9992
2 43694  85.0290 192.1082 0015743 154.8876 205.3140 15.30029217227628
PROXIMA II              
1 43696U 18088G   22349.60982024  .00012875  00000+0  44065-3 0  9998
2 43696  85.0293 192.0900 0015846 154.6178 205.5850 15.29981833227627
FACSAT-1                
1 43721U 18096C   22349.79628523  .00044887  00000+0  92660-3 0  9999
2 43721  97.3361  70.2872 0012353 117.5984   4.9078 15.45646620225885
CENTAURI-2              
1 43722U 18096D   22349.51318990  .00087309  00000+0  13301-2 0  9994
2 43722  97.3401  73.4718 0009224 109.0774 251.1480 15.54148169226037
SIRION PATHFINDER-2     
1 43759U 18099B   22349.42141122  .00002003  00000+0  17830-3 0  9998
2 43759  97.6000  51.3178 0014288  19.5804 340.5964 14.97080238220116
CORVUS BC4              
1 43767U 18099K   22349.71508307  .00003075  00000+0  27540-3 0  9990
2 43767  97.5945  49.8415 0011801  27.5321 332.6524 14.96488972220074
MOVE-II                 
1 43780U 18099Y   22349.71536257  .00006575  00000+0  54004-3 0  9993
2 43780  97.6028  52.9026 0011487  28.3754 331.8093 14.99457056220203
SPACEBEE-7              
1 43816U 18099BL  22349.73017154  .00006221  00000+0  51683-3 0  9993
2 43816  97.6061  53.6226 0012237  15.9985 344.1622 14.99031850219799
SPACEBEE-5              
1 43817U 18099BM  22349.44225813  .00016562  00000+0  11652-2 0  9995
2 43817  97.6166  57.6780 0005033  17.7816 342.3586 15.05129695219954
SPACEBEE-6              
1 43818U 18099BN  22349.46416846  .00008489  00000+0  67230-3 0  9999
2 43818  97.6104  54.6697 0016961  19.3515 340.8349 15.00712013219965
SHIELDS 1               
1 43850U 18104B   22349.11199716  .00006414  00000+0  25440-3 0  9991
2 43850  85.0274 292.2136 0012155 329.7606  30.2935 15.25094368222023
STF-1                   
1 43852U 18104D   22349.29562929  .00018588  00000+0  61995-3 0  9992
2 43852  85.0286 291.6857 0010657 344.8057  15.2868 15.30898567222166
ZACUBE-2                
1 43907U 18111AH  22349.51053402  .00012346  00000+0  41095-3 0  9992
2 43907  97.1634 229.4520 0018914 149.0772 295.4095 15.31099573220968
LUME 1                  
1 43908U 18111AJ  22349.67599545  .00018306  00000+0  54311-3 0  9990
2 43908  97.1657 231.9569 0017362 138.6291 221.6271 15.34712813221141
